[
    {
        "type": "poi",
        "id": "3465585304",
        "lat": 40.891466,
        "lon": 29.3802005,
        "tags": {
            "amenity": "cafe",
            "brand": "Starbucks",
            "name": "Starbucks"
        }
    },
    {
        "type": "poi",
        "id": "3465585305",
        "lat": 40.8914316,
        "lon": 29.3798733,
        "tags": {
            "amenity": "restaurant",
            "name": "Dining Hall"
        }
    },
    {
        "type": "poi",
        "id": "3465585306",
        "lat": 40.8919803,
        "lon": 29.3794767,
        "tags": {
            "brand": "Şok",
            "name": "Şok",
            "shop": "supermarket"
        }
    },
    {
        "type": "poi",
        "id": "3465585307",
        "lat": 40.8917928,
        "lon": 29.37956,
        "tags": {
            "amenity": "bank",
            "brand": "Akbank",
            "name": "Akbank"
        }
    },
    {
        "type": "poi",
        "id": "3465585309",
        "lat": 40.8917659,
        "lon": 29.3797277,
        "tags": {
            "name": "Green Store",
            "shop": "supermarket"
        }
    },
    {
        "type": "poi",
        "id": "3465585311",
        "lat": 40.8918666,
        "lon": 29.3798182,
        "tags": {
            "name": "SU Gift Shop",
            "shop": "gift"
        }
    },
    {
        "type": "poi",
        "id": "3465585312",
        "lat": 40.8919372,
        "lon": 29.3795844,
        "tags": {
            "name": "Homer",
            "shop": "books"
        }
    },
    {
        "type": "poi",
        "id": "3465585382",
        "lat": 40.8918552,
        "lon": 29.3814191,
        "tags": {
            "amenity": "cafe",
            "name": "Piazza"
        }
    },
    {
        "type": "poi",
        "id": "3465585383",
        "lat": 40.8916859,
        "lon": 29.3815277,
        "tags": {
            "name": "Köpüklü Kahve",
            "shop": "bakery"
        }
    },
    {
        "type": "poi",
        "id": "3465585384",
        "lat": 40.8915734,
        "lon": 29.3814486,
        "tags": {
            "amenity": "cafe",
            "name": "Espressolab"
        }
    },
    {
        "type": "poi",
        "id": "3465616422",
        "lat": 40.89176,
        "lon": 29.3828436,
        "tags": {
            "name": "Medline"
        }
    },
    {
        "type": "poi",
        "id": "3465616423",
        "lat": 40.8918097,
        "lon": 29.3824748,
        "tags": {
            "amenity": "post_office",
            "name": "Post Office"
        }
    },
    {
        "type": "poi",
        "id": "11584727088",
        "lat": 40.8905849,
        "lon": 29.3792685,
        "tags": {
            "amenity": "cafe",
            "name": "Simit Sarayı"
        }
    }
]